0 SL-16 DEB
1 22545U 92093HF  13280.74769258  .00001126  00000-0  14074-2 0  3423
2 22545 071.5651 196.8780 0425052 351.4929 033.6491 13.33894156  2310
0 SL-16 DEB
1 22545U 92093HF  13283.17472547  .00001102  00000-0  13785-2 0  3438
2 22545 071.5653 192.5490 0425017 348.1218 168.2728 13.33905851  2636
0 SL-16 DEB
1 22545U 92093HF  13285.69665976  .00001081  00000-0  13522-2 0  3443
2 22545 071.5655 188.0511 0425005 344.6051 038.7255 13.33912574  2978
0 SL-16 DEB
1 22545U 92093HF  13287.72209587  .00001696  00000-0  20973-2 0  3452
2 22545 071.5656 184.4384 0424986 341.7672 045.0263 13.33921111  3249
0 SL-16 DEB
1 22545U 92093HF  13291.12312756  .00001137  00000-0  14216-2 0  3468
2 22545 071.5653 178.3719 0424822 337.0429 177.1347 13.33932143  3693
0 SL-16 DEB
1 22545U 92093HF  13293.72695889  .00001523  00000-0  18883-2 0  3471
2 22545 071.5652 173.7284 0424779 333.3729 081.1568 13.33937710  4045
